[
    {
        "Altitude(m)": 604234.5904874642,
        "Argument of Periapsis(deg)": 0.0,
        "Eccentricity": 0.0,
        "Inclination(deg)": 60.0,
        "Latitude(deg)": 14.117128882679562,
        "Longitude(deg)": -58.27268174490072,
        "Mean Anomaly(deg)": -196.36359999999996,
        "RAAN(deg)": 229.99999999999997,
        "Satellite Name": "Test1 1022",
        "Satellite Number": 1022,
        "Semi-Major Axis(m)": 6980739.136638005,
        "Time(s)": 0
    },
    {
        "Altitude(m)": 604223.419742718,
        "Argument of Periapsis(deg)": 0.00010418945913296404,
        "Eccentricity": 0.0,
        "Inclination(deg)": 60.0,
        "Latitude(deg)": 13.582265429854731,
        "Longitude(deg)": -57.98577233908759,
        "Mean Anomaly(deg)": -195.7434938545382,
        "RAAN(deg)": 229.99957995086024,
        "Satellite Name": "Test1 1022",
        "Satellite Number": 1022,
        "Semi-Major Axis(m)": 6980739.136638005,
        "Time(s)": 10
    }
]